NORAD_CAT_ID,OBJECT_NAME,OBJECT_TYPE,EPOCH,MEAN_MOTION,ECCENTRICITY,INCLINATION,RA_OF_ASC_NODE,ARG_OF_PERICENTER,MEAN_ANOMALY,BSTAR,MEAN_MOTION_DOT,MEAN_MOTION_DDOT,TLE_LINE0,TLE_LINE1,TLE_LINE2,SEMIMAJOR_AXIS,PERIOD,APOGEE,PERIGEE,DECAYED
52620.0,STARLINK-3975,PAYLOAD,2023-10-28 10:21:03,15.08837661,0.0001398,53.2156,199.4371,90.9416,269.1736,6.8161e-05,7.97e-06,0.0,0 STARLINK-3975,1 52620U 22052Y   23301.43129229  .00000797  00000-0  68161-4 0  9996,2 52620  53.2156 199.4371 0001398  90.9416 269.1736 15.08837661 80459,6917.888,95.438,540.72,538.785,0.0
52620.0,STARLINK-3975,PAYLOAD,2023-10-28 21:28:46,15.08827635,0.0001449,53.216,197.3559,93.7968,266.319,1.274e-05,-8.5e-07,0.0,0 STARLINK-3975,1 52620U 22052Y   23301.89497822 -.00000085  00000-0  12740-4 0  9996,2 52620  53.2160 197.3559 0001449  93.7968 266.3190 15.08827635 80520,6917.918,95.438,540.786,538.781,0.0
52620.0,STARLINK-3975,PAYLOAD,2023-10-29 10:11:51,15.08838083,0.0001646,53.2161,194.977,96.0328,264.0852,0.00010578,1.396e-05,0.0,0 STARLINK-3975,1 52620U 22052Y   23302.42489738  .00001396  00000-0  10578-3 0  9994,2 52620  53.2161 194.9770 0001646  96.0328 264.0852 15.08838083 80602,6917.886,95.438,540.89,538.613,0.0
52620.0,STARLINK-3975,PAYLOAD,2023-10-29 22:54:56,15.08846352,0.0001318,53.216,192.6006,100.2366,259.8775,0.0003008,4.503e-05,0.0,0 STARLINK-3975,1 52620U 22052Y   23302.95481492  .00004503  00000-0  30080-3 0  9994,2 52620  53.2160 192.6006 0001318 100.2366 259.8775 15.08846352 80686,6917.861,95.437,540.638,538.814,0.0
52620.0,STARLINK-3975,PAYLOAD,2023-10-30 02:05:41,15.08856157,0.0001445,53.2163,192.0024,100.4288,259.6867,0.00044055,6.733e-05,0.0,0 STARLINK-3975,1 52620U 22052Y   23303.08729017  .00006733  00000-0  44055-3 0  9991,2 52620  53.2163 192.0024 0001445 100.4288 259.6867 15.08856157 81088,6917.831,95.437,540.696,538.696,0.0
52620.0,STARLINK-3975,PAYLOAD,2023-10-30 10:02:38,15.08834624,0.000204,53.2181,190.5165,84.9637,275.1588,3.4167e-05,2.56e-06,0.0,0 STARLINK-3975,1 52620U 22052Y   23303.41850202  .00000256  00000-0  34167-4 0  9997,2 52620  53.2181 190.5165 0002040  84.9637 275.1588 15.08834624 81137,6917.897,95.438,541.173,538.351,0.0
52620.0,STARLINK-3975,PAYLOAD,2023-10-30 22:45:43,15.08828793,0.0001302,53.2164,188.1389,86.3335,273.7806,-4.9074e-05,-1.069e-05,0.0,0 STARLINK-3975,1 52620U 22052Y   23303.94842516 -.00001069  00000-0 -49074-4 0  9992,2 52620  53.2164 188.1389 0001302  86.3335 273.7806 15.08828793 80833,6917.915,95.438,540.68,538.879,0.0
52620.0,STARLINK-3975,PAYLOAD,2023-10-31 09:53:25,15.08839943,0.0001613,53.2165,186.0565,92.155,267.9627,0.00012956,1.775e-05,0.0,0 STARLINK-3975,1 52620U 22052Y   23304.41210282  .00001775  00000-0  12956-3 0  9994,2 52620  53.2165 186.0565 0001613  92.1550 267.9627 15.08839943 80909,6917.881,95.438,540.861,538.63,0.0
52620.0,STARLINK-3975,PAYLOAD,2023-10-31 19:25:43,15.08867557,0.0001586,53.2179,184.2728,85.6515,274.4658,0.00060602,9.377e-05,0.0,0 STARLINK-3975,1 52620U 22052Y   23304.80952960  .00009377  00000-0  60602-3 0  9990,2 52620  53.2179 184.2728 0001586  85.6515 274.4658 15.08867557 81340,6917.796,95.436,540.758,538.564,0.0
52620.0,STARLINK-3975,PAYLOAD,2023-10-31 22:36:29,15.08876356,0.0001681,53.2168,183.6762,96.2642,263.8541,0.00067813,0.00010532,0.0,0 STARLINK-3975,1 52620U 22052Y   23304.94200364  .00010532  00000-0  67813-3 0  9995,2 52620  53.2168 183.6762 0001681  96.2642 263.8541 15.08876356 80983,6917.769,95.435,540.797,538.471,0.0
52620.0,STARLINK-3975,PAYLOAD,2023-11-01 01:47:15,15.08880145,0.0001746,53.2169,183.0809,96.6818,263.4373,0.0007272,0.00011317,0.0,0 STARLINK-3975,1 52620U 22052Y   23305.07447994  .00011317  00000-0  72720-3 0  9997,2 52620  53.2169 183.0809 0001746  96.6818 263.4373 15.08880145 81386,6917.758,95.435,540.831,538.415,0.0
52620.0,STARLINK-3975,PAYLOAD,2023-11-01 19:16:30,15.08841359,0.0001301,53.2167,179.8114,98.7897,261.3243,-1.4798e-05,-5.23e-06,0.0,0 STARLINK-3975,1 52620U 22052Y   23305.80313094 -.00000523  00000-0 -14798-4 0  9992,2 52620  53.2167 179.8114 0001301  98.7897 261.3243 15.08841359 81492,6917.876,95.437,540.641,538.841,0.0
52620.0,STARLINK-3975,PAYLOAD,2023-11-01 22:27:16,15.08842494,0.0001345,53.2162,179.2169,94.5008,265.6138,2.4183e-08,-2.88e-06,0.0,0 STARLINK-3975,1 52620U 22052Y   23305.93561067 -.00000288  00000-0  24183-7 0  9990,2 52620  53.2162 179.2169 0001345  94.5008 265.6138 15.08842494 81139,6917.873,95.437,540.668,538.807,0.0
52620.0,STARLINK-3975,PAYLOAD,2023-11-02 19:07:18,15.08827524,0.0001384,53.2161,175.3505,97.1154,262.9995,-0.00022116,-3.805e-05,0.0,0 STARLINK-3975,1 52620U 22052Y   23306.79673656 -.00003805  00000-0 -22116-3 0  9992,2 52620  53.2161 175.3505 0001384  97.1154 262.9995 15.08827524 81647,6917.919,95.438,540.741,538.826,0.0
52620.0,STARLINK-3975,PAYLOAD,2023-11-02 22:18:04,15.0883666,0.0001327,53.2162,174.7601,91.2798,268.8346,-0.00021777,-3.752e-05,0.0,0 STARLINK-3975,1 52620U 22052Y   23306.92921565 -.00003752  00000-0 -21777-3 0  9995,2 52620  53.2162 174.7601 0001327  91.2798 268.8346 15.08836660 81280,6917.891,95.438,540.674,538.838,0.0
52620.0,STARLINK-3975,PAYLOAD,2023-11-03 04:39:36,15.08844748,0.0001351,53.2152,173.5682,89.5637,270.551,-0.00013519,-2.439e-05,0.0,0 STARLINK-3975,1 52620U 22052Y   23307.19416936 -.00002439  00000-0 -13519-3 0  9992,2 52620  53.2152 173.5682 0001351  89.5637 270.5510 15.08844748 81700,6917.866,95.437,540.665,538.796,0.0
52620.0,STARLINK-3975,PAYLOAD,2023-11-03 07:50:23,15.08826836,0.0001291,53.215,172.974,88.8718,271.2422,-9.2507e-05,-1.759e-05,0.0,0 STARLINK-3975,1 52620U 22052Y   23307.32665930 -.00001759  00000-0 -92507-4 0  9996,2 52620  53.2150 172.9740 0001291  88.8718 271.2422 15.08826836 81721,6917.921,95.438,540.679,538.893,0.0
52620.0,STARLINK-3975,PAYLOAD,2023-11-03 22:08:51,15.08838891,0.0001195,53.2152,170.2977,91.2211,268.8918,0.00033369,5.027e-05,0.0,0 STARLINK-3975,1 52620U 22052Y   23307.92282207  .00005027  00000-0  33369-3 0  9994,2 52620  53.2152 170.2977 0001195  91.2211 268.8918 15.08838891 81439,6917.884,95.438,540.575,538.922,0.0
52620.0,STARLINK-3975,PAYLOAD,2023-11-04 07:41:10,15.08837496,0.0001184,53.2152,168.5137,90.2176,269.8951,0.00026283,3.897e-05,0.0,0 STARLINK-3975,1 52620U 22052Y   23308.32026483  .00003897  00000-0  26283-3 0  9991,2 52620  53.2152 168.5137 0001184  90.2176 269.8951 15.08837496 81498,6917.888,95.438,540.572,538.934,0.0
52620.0,STARLINK-3975,PAYLOAD,2023-11-04 20:24:16,15.08840533,0.0001189,53.2151,166.1349,89.2805,270.8324,0.00022748,3.334e-05,0.0,0 STARLINK-3975,1 52620U 22052Y   23308.85018566  .00003334  00000-0  22748-3 0  9990,2 52620  53.2151 166.1349 0001189  89.2805 270.8324 15.08840533 81951,6917.879,95.438,540.566,538.921,0.0
52620.0,STARLINK-3975,PAYLOAD,2023-11-04 21:59:39,15.08843994,0.0001187,53.2152,165.8375,89.0157,271.0971,0.0003075,4.61e-05,0.0,0 STARLINK-3975,1 52620U 22052Y   23308.91642476  .00004610  00000-0  30750-3 0  9990,2 52620  53.2152 165.8375 0001187  89.0157 271.0971 15.08843994 81587,6917.868,95.437,540.554,538.912,0.0
52620.0,STARLINK-3975,PAYLOAD,2023-11-05 07:31:57,15.08850728,0.0001246,53.2152,164.0537,87.8043,272.3092,0.00043955,6.716e-05,0.0,0 STARLINK-3975,1 52620U 22052Y   23309.31386220  .00006716  00000-0  43955-3 0  9997,2 52620  53.2152 164.0537 0001246  87.8043 272.3092 15.08850728 81642,6917.848,95.437,540.575,538.851,0.0
52620.0,STARLINK-3975,PAYLOAD,2023-11-05 20:15:02,15.08857837,0.0001315,53.2152,161.675,83.831,276.2832,0.00044537,6.811e-05,0.0,0 STARLINK-3975,1 52620U 22052Y   23309.84377721  .00006811  00000-0  44537-3 0  9994,2 52620  53.2152 161.6750 0001315  83.8310 276.2832 15.08857837 82107,6917.826,95.436,540.601,538.781,0.0
52620.0,STARLINK-3975,PAYLOAD,2023-11-05 21:50:25,15.08875636,0.0001363,53.2152,161.3772,82.1559,277.9588,0.00092793,0.00014525,0.0,0 STARLINK-3975,1 52620U 22052Y   23309.91001364  .00014525  00000-0  92793-3 0  9997,2 52620  53.2152 161.3772 0001363  82.1559 277.9588 15.08875636 81739,6917.771,95.435,540.579,538.694,0.0
52620.0,STARLINK-3975,PAYLOAD,2023-11-05 23:25:48,15.08878948,0.0001337,53.2149,161.0801,83.6821,276.4323,0.0013155,0.00020733,0.0,0 STARLINK-3975,1 52620U 22052Y   23309.97625348  .00020733  00000-0  13155-2 0  9999,2 52620  53.2149 161.0801 0001337  83.6821 276.4323 15.08878948 82128,6917.761,95.435,540.551,538.701,0.0
52620.0,STARLINK-3975,PAYLOAD,2023-11-06 07:22:43,15.08869019,0.0001393,53.2149,159.5929,91.487,268.6281,0.00065169,0.00010107,0.0,0 STARLINK-3975,1 52620U 22052Y   23310.30745023  .00010107  00000-0  65169-3 0  9998,2 52620  53.2149 159.5929 0001393  91.4870 268.6281 15.08869019 82174,6917.792,95.436,540.62,538.693,0.0
52620.0,STARLINK-3975,PAYLOAD,2023-11-06 20:05:48,15.08859082,0.0001197,53.2151,157.2129,100.7748,259.3379,0.00019274,2.782e-05,0.0,0 STARLINK-3975,1 52620U 22052Y   23310.83736520  .00002782  00000-0  19274-3 0  9994,2 52620  53.2151 157.2129 0001197 100.7748 259.3379 15.08859082 82257,6917.822,95.436,540.515,538.859,0.0
52620.0,STARLINK-3975,PAYLOAD,2023-11-06 21:41:11,15.08856501,0.0001287,53.2151,156.9153,96.7851,263.3288,0.00013368,1.841e-05,0.0,0 STARLINK-3975,1 52620U 22052Y   23310.90360545  .00001841  00000-0  13368-3 0  9995,2 52620  53.2151 156.9153 0001287  96.7851 263.3288 15.08856501 81884,6917.83,95.437,540.585,538.805,0.0
52620.0,STARLINK-3975,PAYLOAD,2023-11-07 07:13:30,15.08838357,0.0001603,53.2153,155.1322,79.1598,280.9574,-0.00019123,-3.33e-05,0.0,0 STARLINK-3975,1 52620U 22052Y   23311.30105238 -.00003330  00000-0 -19123-3 0  9998,2 52620  53.2153 155.1322 0001603  79.1598 280.9574 15.08838357 82322,6917.885,95.438,540.859,538.641,0.0
52620.0,STARLINK-3975,PAYLOAD,2023-11-07 19:56:37,15.08812904,0.0001326,53.2161,152.753,84.655,275.4593,-0.0003895,-6.477e-05,0.0,0 STARLINK-3975,1 52620U 22052Y   23311.83098464 -.00006477  00000-0 -38950-3 0  9992,2 52620  53.2161 152.7530 0001326  84.6550 275.4593 15.08812904 82405,6917.963,95.439,540.746,538.911,0.0
